[{"OBJECT_NAME":"FLOCK 4G-10","OBJECT_ID":"2025-009BP","EPOCH":"2026-03-09T16:59:55.292640","MEAN_MOTION":15.27155944,"ECCENTRICITY":0.00034694,"INCLINATION":97.3967,"RA_OF_ASC_NODE":150.5883,"ARG_OF_PERICENTER":341.4844,"MEAN_ANOMALY":18.6269,"EPHEMERIS_TYPE":0,"CLASSIFICATION_TYPE":"U","NORAD_CAT_ID":62670,"ELEMENT_SET_NO":999,"REV_AT_EPOCH":12134,"BSTAR":0.00052624432,"MEAN_MOTION_DOT":0.00013952,"MEAN_MOTION_DDOT":0},{"OBJECT_NAME":"STARLINK-33896","OBJECT_ID":"2025-093AB","EPOCH":"2026-03-09T21:45:03.921696","MEAN_MOTION":15.27587038,"ECCENTRICITY":0.00010507,"INCLINATION":43.0003,"RA_OF_ASC_NODE":76.7988,"ARG_OF_PERICENTER":259.929,"MEAN_ANOMALY":100.1443,"EPHEMERIS_TYPE":0,"CLASSIFICATION_TYPE":"U","NORAD_CAT_ID":63861,"ELEMENT_SET_NO":999,"REV_AT_EPOCH":4778,"BSTAR":0.00069706536,"MEAN_MOTION_DOT":0.00018973,"MEAN_MOTION_DDOT":0}]
